OBJECT_NAME,OBJECT_ID,EPOCH,MEAN_MOTION,ECCENTRICITY,INCLINATION,RA_OF_ASC_NODE,ARG_OF_PERICENTER,MEAN_ANOMALY,EPHEMERIS_TYPE,CLASSIFICATION_TYPE,NORAD_CAT_ID,ELEMENT_SET_NO,REV_AT_EPOCH,BSTAR,MEAN_MOTION_DOT,MEAN_MOTION_DDOT
STARLINK-37963,2026-147F,2026-07-18T20:05:05.437536,15.80874605,.00008465,97.2817,236.4434,79.5324,280.6039,0,U,69709,999,443,.85331852E-3,.166918E-2,0
STARLINK-37969,2026-147G,2026-07-18T20:04:00.581376,15.80870450,.0000709,97.2833,236.4449,96.0104,264.1245,0,U,69710,999,443,.12247065E-2,.241665E-2,0
STARLINK-37956,2026-147H,2026-07-18T21:34:05.049984,15.80865773,.00013241,97.2831,236.5137,70.7258,289.4154,0,U,69711,999,444,.87678082E-3,.171535E-2,0
STARLINK-38043,2026-147J,2026-07-18T20:01:50.787840,15.80866672,.00009947,97.2832,236.4468,81.7493,278.3888,0,U,69712,999,443,.11054077E-2,.21746E-2,0
STARLINK-38020,2026-147K,2026-07-18T21:31:55.324704,15.80892280,.00015853,97.2823,236.5146,84.8321,275.3128,0,U,69713,999,444,.1366704E-2,.270882E-2,0
STARLINK-38059,2026-147L,2026-07-18T21:30:52.014240,15.80696529,.00025458,97.2817,236.5154,217.7804,142.3286,0,U,69714,999,444,.10996055E-2,.21459E-2,0
STARLINK-38061,2026-147M,2026-07-18T13:53:59.430048,15.80941554,.000121,97.2815,236.1832,70.3471,289.7928,0,U,69715,999,439,.14721E-2,.293195E-2,0
STARLINK-38060,2026-147N,2026-07-18T13:52:54.469344,15.80948891,.0001322,97.2824,236.1839,58.1244,302.0153,0,U,69716,999,439,.14898E-2,.296955E-2,0
STARLINK-38040,2026-147P,2026-07-18T13:51:49.546656,15.80917767,.0001342,97.2816,236.1848,66.9493,293.1917,0,U,69717,999,439,.11785E-2,.232812E-2,0
STARLINK-37989,2026-147Q,2026-07-18T13:50:44.571264,15.80939579,.0001025,97.2816,236.1849,84.6246,275.5140,0,U,69718,999,439,.14263E-2,.283732E-2,0
STARLINK-38039,2026-147R,2026-07-18T13:49:39.582048,15.80933810,.000096,97.2821,236.1857,75.1951,284.9423,0,U,69719,999,439,.13403E-2,.266007E-2,0
STARLINK-38003,2026-147S,2026-07-18T13:48:34.782048,15.80927741,.0001269,97.2813,236.1863,80.6487,279.4924,0,U,69720,999,439,.13332E-2,.264463E-2,0
STARLINK-38014,2026-147T,2026-07-18T16:49:48.148608,15.80847077,.00014734,97.2818,236.3219,98.3365,261.8070,0,U,69721,999,441,.13895936E-2,.274984E-2,0
STARLINK-37915,2026-147U,2026-07-18T19:51:01.881504,15.80860970,.00020706,97.2823,236.4567,85.3678,274.7827,0,U,69722,999,443,.10497366E-2,.206185E-2,0
STARLINK-38007,2026-147V,2026-07-18T13:49:51.235680,15.80887069,.0002113,97.2822,236.1850,354.4195,5.7049,0,U,69723,999,439,.98554E-3,.193516E-2,0
STARLINK-38008,2026-147W,2026-07-18T13:44:15.046368,15.80916255,.0001567,97.2823,236.1923,82.3022,277.8424,0,U,69724,999,439,.11502E-2,.227035E-2,0
STARLINK-38021,2026-147X,2026-07-18T13:43:09.547392,15.80947571,.0001267,97.2826,236.1932,69.1783,290.9621,0,U,69725,999,439,.12784E-2,.253504E-2,0
STARLINK-38015,2026-147Y,2026-07-17T01:14:28.656384,15.80693791,.00031092,97.2828,234.5863,175.2803,184.8496,0,U,69726,999,415,.13764939E-2,.270378E-2,0
STARLINK-38010,2026-147Z,2026-07-18T13:00:48.538080,15.75235803,.0000282,97.2825,236.0784,223.9095,136.2147,0,U,69727,999,438,.12341E-2,.188434E-2,0
SXM-11,2026-148A,2026-07-18T17:47:09.643776,1.00270106,.00020219,0.1021,265.0330,184.2055,353.5640,0,U,69728,999,35,0,.4E-7,0
HAIYANG-2E,2026-149A,2026-07-19T00:05:09.845952,13.79314769,.0001578,99.3454,206.8764,89.3102,270.8230,0,U,69737,999,234,.18494E-5,-.42E-6,0
CZ-4B R/B,2026-149B,2026-07-18T21:35:26.369664,14.30068449,.01979699,99.3218,208.1829,319.3954,39.2602,0,U,69738,999,266,.2959203E-4,.36E-6,0
STARLINK-38033,2026-150A,2026-07-18T12:04:04.658880,15.80941563,.00014821,97.2841,38.0553,123.7803,236.3606,0,U,69739,999,384,.14994082E-2,.298832E-2,0
STARLINK-38076,2026-150B,2026-07-18T12:48:00.255456,15.75226504,.0001323,97.2840,38.0124,108.5412,251.5997,0,U,69740,999,384,.72123351E-3,.109001E-2,0
STARLINK-38074,2026-150C,2026-07-18T22:00:01.999584,15.75147782,.00010114,97.2843,38.4928,86.3156,106.2220,0,U,69741,999,389,.16624187E-3,.24692E-3,0
STARLINK-38041,2026-150D,2026-07-18T22:00:01.999584,15.75167694,.00014349,97.2852,38.4708,95.9989,42.5289,0,U,69742,999,389,.51227544E-4,.7511E-4,0
STARLINK-38087,2026-150E,2026-07-18T22:00:01.999584,15.75185761,.0001163,97.2845,38.4869,99.1149,81.4060,0,U,69743,999,389,-.16355344E-3,-.2445E-3,0
STARLINK-38078,2026-150F,2026-07-18T11:57:06.260832,15.80910023,.00008777,97.2847,38.0621,99.2702,260.8666,0,U,69744,999,384,.12077551E-2,.238664E-2,0
STARLINK-38047,2026-150G,2026-07-18T22:00:01.999584,15.75189479,.00007462,97.2851,38.4733,107.9869,40.5335,0,U,69745,999,389,-.1830741E-3,-.27347E-3,0
STARLINK-38046,2026-150H,2026-07-18T21:00:21.383136,15.80182091,.00051663,97.2857,38.4681,346.6884,13.4246,0,U,69746,999,390,.10981239E-2,.20933E-2,0
